{
    "type": "FeatureCollection",
    "features": [
        {
            "type": "Feature",
            "geometry": {
                "type": "MultiPolygon",
                "coordinates": [
                    [
                        [
                            [
                                -99.06889,
                                19.326873
                            ],
                            [
                                -99.069188,
                                19.326438
                            ],
                            [
                                -99.069386,
                                19.326176
                            ],
                            [
                                -99.069527,
                                19.326005
                            ],
                            [
                                -99.069693,
                                19.325803
                            ],
                            [
                                -99.06999,
                                19.325434
                            ],
                            [
                                -99.070197,
                                19.32517
                            ],
                            [
                                -99.070443,
                                19.325344
                            ],
                            [
                                -99.07267,
                                19.325715
                            ],
                            [
                                -99.073408,
                                19.325835
                            ],
                            [
                                -99.075293,
                                19.32615
                            ],
                            [
                                -99.075291,
                                19.326178
                            ],
                            [
                                -99.075166,
                                19.328018
                            ],
                            [
                                -99.070947,
                                19.327271
                            ],
                            [
                                -99.070721,
                                19.327238
                            ],
                            [
                                -99.070712,
                                19.327237
                            ],
                            [
                                -99.0705,
                                19.327199
                            ],
                            [
                                -99.070382,
                                19.327178
                            ],
                            [
                                -99.069126,
                                19.326955
                            ],
                            [
                                -99.069037,
                                19.326924
                            ],
                            [
                                -99.068918,
                                19.326883
                            ],
                            [
                                -99.06889,
                                19.326873
                            ]
                        ]
                    ]
                ]
            },
            "properties": {
                "area_km2": 0.1249,
                "cve_ageb": "090070001554A",
                "densidad_pob_km2": 21273.6022,
                "entidad": "09",
                "fuente": "INEGI Censo 2020",
                "municipio_alcaldia": "Iztapalapa",
                "pea": 1527,
                "poblacion_total": 2658,
                "tipo_entidad": "ageb",
                "viviendas_habitadas": 872
            }
        },
        {
            "type": "Feature",
            "geometry": {
                "type": "MultiPolygon",
                "coordinates": [
                    [
                        [
                            [
                                -99.035893,
                                19.370188
                            ],
                            [
                                -99.034989,
                                19.369639
                            ],
                            [
                                -99.034945,
                                19.369612
                            ],
                            [
                                -99.034917,
                                19.369592
                            ],
                            [
                                -99.035005,
                                19.369439
                            ],
                            [
                                -99.035456,
                                19.368653
                            ],
                            [
                                -99.036173,
                                19.369029
                            ],
                            [
                                -99.036471,
                                19.369185
                            ],
                            [
                                -99.036134,
                                19.369787
                            ],
                            [
                                -99.035893,
                                19.370188
                            ]
                        ]
                    ]
                ]
            },
            "properties": {
                "area_km2": 0.015,
                "cve_ageb": "0900700014679",
                "densidad_pob_km2": 29383.6135,
                "entidad": "09",
                "fuente": "INEGI Censo 2020",
                "municipio_alcaldia": "Iztapalapa",
                "pea": 227,
                "poblacion_total": 440,
                "tipo_entidad": "ageb",
                "viviendas_habitadas": 128
            }
        },
        {
            "type": "Feature",
            "geometry": {
                "type": "MultiPolygon",
                "coordinates": [
                    [
                        [
                            [
                                -99.007311,
                                19.376624
                            ],
                            [
                                -99.006917,
                                19.376389
                            ],
                            [
                                -99.006518,
                                19.376152
                            ],
                            [
                                -99.00616,
                                19.375938
                            ],
                            [
                                -99.005786,
                                19.375715
                            ],
                            [
                                -99.005691,
                                19.375659
                            ],
                            [
                                -99.006412,
                                19.374192
                            ],
                            [
                                -99.008642,
                                19.375115
                            ],
                            [
                                -99.008038,
                                19.376504
                            ],
                            [
                                -99.007743,
                                19.376881
                            ],
                            [
                                -99.007719,
                                19.376867
                            ],
                            [
                                -99.007683,
                                19.376846
                            ],
                            [
                                -99.00746,
                                19.376713
                            ],
                            [
                                -99.007311,
                                19.376624
                            ]
                        ]
                    ]
                ]
            },
            "properties": {
                "area_km2": 0.0514,
                "cve_ageb": "0900700015747",
                "densidad_pob_km2": 38485.1564,
                "entidad": "09",
                "fuente": "INEGI Censo 2020",
                "municipio_alcaldia": "Iztapalapa",
                "pea": 1095,
                "poblacion_total": 1979,
                "tipo_entidad": "ageb",
                "viviendas_habitadas": 520
            }
        },
        {
            "type": "Feature",
            "geometry": {
                "type": "MultiPolygon",
                "coordinates": [
                    [
                        [
                            [
                                -99.049702,
                                19.3775
                            ],
                            [
                                -99.049737,
                                19.377426
                            ],
                            [
                                -99.049749,
                                19.377409
                            ],
                            [
                                -99.049923,
                                19.376394
                            ],
                            [
                                -99.049982,
                                19.376032
                            ],
                            [
                                -99.050098,
                                19.37519
                            ],
                            [
                                -99.050101,
                                19.375175
                            ],
                            [
                                -99.05012,
                                19.375177
                            ],
                            [
                                -99.050147,
                                19.375184
                            ],
                            [
                                -99.050187,
                                19.375198
                            ],
                            [
                                -99.050204,
                                19.375218
                            ],
                            [
                                -99.050797,
                                19.375385
                            ],
                            [
                                -99.05099,
                                19.375913
                            ],
                            [
                                -99.051001,
                                19.375918
                            ],
                            [
                                -99.051444,
                                19.37611
                            ],
                            [
                                -99.052071,
                                19.376383
                            ],
                            [
                                -99.052694,
                                19.376653
                            ],
                            [
                                -99.052473,
                                19.377148
                            ],
                            [
                                -99.052771,
                                19.37726
                            ],
                            [
                                -99.05264,
                                19.377561
                            ],
                            [
                                -99.05241,
                                19.378056
                            ],
                            [
                                -99.051884,
                                19.378334
                            ],
                            [
                                -99.051808,
                                19.378366
                            ],
                            [
                                -99.05118,
                                19.3781
                            ],
                            [
                                -99.05071,
                                19.377903
                            ],
                            [
                                -99.050338,
                                19.377752
                            ],
                            [
                                -99.049702,
                                19.3775
                            ]
                        ]
                    ]
                ]
            },
            "properties": {
                "area_km2": 0.0666,
                "cve_ageb": "0900700015183",
                "densidad_pob_km2": 59066.8706,
                "entidad": "09",
                "fuente": "INEGI Censo 2020",
                "municipio_alcaldia": "Iztapalapa",
                "pea": 2082,
                "poblacion_total": 3932,
                "tipo_entidad": "ageb",
                "viviendas_habitadas": 903
            }
        },
        {
            "type": "Feature",
            "geometry": {
                "type": "MultiPolygon",
                "coordinates": [
                    [
                        [
                            [
                                -99.077223,
                                19.361691
                            ],
                            [
                                -99.075208,
                                19.361033
                            ],
                            [
                                -99.075246,
                                19.360904
                            ],
                            [
                                -99.076164,
                                19.357758
                            ],
                            [
                                -99.078189,
                                19.358425
                            ],
                            [
                                -99.077615,
                                19.360366
                            ],
                            [
                                -99.077223,
                                19.361691
                            ]
                        ]
                    ]
                ]
            },
            "properties": {
                "area_km2": 0.0842,
                "cve_ageb": "0900700014791",
                "densidad_pob_km2": 25347.1376,
                "entidad": "09",
                "fuente": "INEGI Censo 2020",
                "municipio_alcaldia": "Iztapalapa",
                "pea": 1277,
                "poblacion_total": 2135,
                "tipo_entidad": "ageb",
                "viviendas_habitadas": 638
            }
        },
        {
            "type": "Feature",
            "geometry": {
                "type": "MultiPolygon",
                "coordinates": [
                    [
                        [
                            [
                                -99.153587,
                                19.445239
                            ],
                            [
                                -99.153957,
                                19.444432
                            ],
                            [
                                -99.154802,
                                19.444571
                            ],
                            [
                                -99.155369,
                                19.444671
                            ],
                            [
                                -99.155393,
                                19.444676
                            ],
                            [
                                -99.155895,
                                19.444765
                            ],
                            [
                                -99.157005,
                                19.444937
                            ],
                            [
                                -99.157702,
                                19.44505
                            ],
                            [
                                -99.158462,
                                19.445222
                            ],
                            [
                                -99.158043,
                                19.447104
                            ],
                            [
                                -99.157723,
                                19.448851
                            ],
                            [
                                -99.157371,
                                19.450665
                            ],
                            [
                                -99.157129,
                                19.451977
                            ],
                            [
                                -99.157047,
                                19.452485
                            ],
                            [
                                -99.156284,
                                19.45236
                            ],
                            [
                                -99.155645,
                                19.452255
                            ],
                            [
                                -99.154527,
                                19.452071
                            ],
                            [
                                -99.15343,
                                19.45189
                            ],
                            [
                                -99.152877,
                                19.451799
                            ],
                            [
                                -99.152272,
                                19.4517
                            ],
                            [
                                -99.152453,
                                19.45072
                            ],
                            [
                                -99.152608,
                                19.44987
                            ],
                            [
                                -99.152939,
                                19.44805
                            ],
                            [
                                -99.153262,
                                19.446302
                            ],
                            [
                                -99.153379,
                                19.445669
                            ],
                            [
                                -99.153587,
                                19.445239
                            ]
                        ]
                    ]
                ]
            },
            "properties": {
                "area_km2": 0.4167,
                "cve_ageb": "0901500010485",
                "densidad_pob_km2": 23740.9305,
                "entidad": "09",
                "fuente": "INEGI Censo 2020",
                "municipio_alcaldia": "Cuauht\u00e9moc",
                "pea": 6127,
                "poblacion_total": 9893,
                "tipo_entidad": "ageb",
                "viviendas_habitadas": 3667
            }
        },
        {
            "type": "Feature",
            "geometry": {
                "type": "MultiPolygon",
                "coordinates": [
                    [
                        [
                            [
                                -99.203967,
                                19.495198
                            ],
                            [
                                -99.204271,
                                19.494323
                            ],
                            [
                                -99.204262,
                                19.494287
                            ],
                            [
                                -99.204487,
                                19.493587
                            ],
                            [
                                -99.204739,
                                19.492887
                            ],
                            [
                                -99.205767,
                                19.493141
                            ],
                            [
                                -99.206103,
                                19.49322
                            ],
                            [
                                -99.206118,
                                19.493301
                            ],
                            [
                                -99.206083,
                                19.493392
                            ],
                            [
                                -99.206064,
                                19.49347
                            ],
                            [
                                -99.206067,
                                19.493523
                            ],
                            [
                                -99.20613,
                                19.493971
                            ],
                            [
                                -99.206147,
                                19.494035
                            ],
                            [
                                -99.20617,
                                19.494082
                            ],
                            [
                                -99.20623,
                                19.494113
                            ],
                            [
                                -99.206294,
                                19.49414
                            ],
                            [
                                -99.206837,
                                19.494322
                            ],
                            [
                                -99.206774,
                                19.494988
                            ],
                            [
                                -99.206682,
                                19.495932
                            ],
                            [
                                -99.206475,
                                19.495883
                            ],
                            [
                                -99.206296,
                                19.495829
                            ],
                            [
                                -99.206252,
                                19.495816
                            ],
                            [
                                -99.206067,
                                19.495762
                            ],
                            [
                                -99.205482,
                                19.495603
                            ],
                            [
                                -99.205461,
                                19.495597
                            ],
                            [
                                -99.205053,
                                19.495487
                            ],
                            [
                                -99.204499,
                                19.495339
                            ],
                            [
                                -99.204265,
                                19.495275
                            ],
                            [
                                -99.203967,
                                19.495198
                            ]
                        ]
                    ]
                ]
            },
            "properties": {
                "area_km2": 0.0644,
                "cve_ageb": "090020001099A",
                "densidad_pob_km2": 20770.6623,
                "entidad": "09",
                "fuente": "INEGI Censo 2020",
                "municipio_alcaldia": "Azcapotzalco",
                "pea": 738,
                "poblacion_total": 1337,
                "tipo_entidad": "ageb",
                "viviendas_habitadas": 418
            }
        },
        {
            "type": "Feature",
            "geometry": {
                "type": "MultiPolygon",
                "coordinates": [
                    [
                        [
                            [
                                -99.032876,
                                19.366687
                            ],
                            [
                                -99.033209,
                                19.366107
                            ],
                            [
                                -99.033467,
                                19.366232
                            ],
                            [
                                -99.033798,
                                19.36639
                            ],
                            [
                                -99.034176,
                                19.3666
                            ],
                            [
                                -99.034512,
                                19.366765
                            ],
                            [
                                -99.034884,
                                19.366949
                            ],
                            [
                                -99.035236,
                                19.367122
                            ],
                            [
                                -99.035588,
                                19.367284
                            ],
                            [
                                -99.036069,
                                19.367533
                            ],
                            [
                                -99.035755,
                                19.368107
                            ],
                            [
                                -99.035649,
                                19.368301
                            ],
                            [
                                -99.03564,
                                19.368318
                            ],
                            [
                                -99.03555,
                                19.368481
                            ],
                            [
                                -99.035508,
                                19.368557
                            ],
                            [
                                -99.035456,
                                19.368653
                            ],
                            [
                                -99.035005,
                                19.369439
                            ],
                            [
                                -99.034917,
                                19.369592
                            ],
                            [
                                -99.034746,
                                19.369491
                            ],
                            [
                                -99.03414,
                                19.369137
                            ],
                            [
                                -99.033815,
                                19.368947
                            ],
                            [
                                -99.033415,
                                19.368713
                            ],
                            [
                                -99.033201,
                                19.368588
                            ],
                            [
                                -99.03282,
                                19.36835
                            ],
                            [
                                -99.032612,
                                19.368219
                            ],
                            [
                                -99.032454,
                                19.36812
                            ],
                            [
                                -99.03216,
                                19.367935
                            ],
                            [
                                -99.032536,
                                19.36728
                            ],
                            [
                                -99.032876,
                                19.366687
                            ]
                        ]
                    ]
                ]
            },
            "properties": {
                "area_km2": 0.0838,
                "cve_ageb": "0900700014683",
                "densidad_pob_km2": 33075.009,
                "entidad": "09",
                "fuente": "INEGI Censo 2020",
                "municipio_alcaldia": "Iztapalapa",
                "pea": 1404,
                "poblacion_total": 2771,
                "tipo_entidad": "ageb",
                "viviendas_habitadas": 792
            }
        },
        {
            "type": "Feature",
            "geometry": {
                "type": "MultiPolygon",
                "coordinates": [
                    [
                        [
                            [
                                -99.208177,
                                19.487283
                            ],
                            [
                                -99.208079,
                                19.487229
                            ],
                            [
                                -99.207141,
                                19.486984
                            ],
                            [
                                -99.205647,
                                19.486597
                            ],
                            [
                                -99.204527,
                                19.486305
                            ],
                            [
                                -99.202551,
                                19.485802
                            ],
                            [
                                -99.203347,
                                19.483741
                            ],
                            [
                                -99.203491,
                                19.48378
                            ],
                            [
                                -99.208545,
                                19.485146
                            ],
                            [
                                -99.208654,
                                19.485175
                            ],
                            [
                                -99.209329,
                                19.48539
                            ],
                            [
                                -99.209955,
                                19.485588
                            ],
                            [
                                -99.211005,
                                19.485921
                            ],
                            [
                                -99.211273,
                                19.485985
                            ],
                            [
                                -99.211472,
                                19.485986
                            ],
                            [
                                -99.211546,
                                19.485987
                            ],
                            [
                                -99.212054,
                                19.485911
                            ],
                            [
                                -99.212391,
                                19.485901
                            ],
                            [
                                -99.212504,
                                19.485925
                            ],
                            [
                                -99.212972,
                                19.486027
                            ],
                            [
                                -99.214584,
                                19.486545
                            ],
                            [
                                -99.216199,
                                19.487079
                            ],
                            [
                                -99.216721,
                                19.487251
                            ],
                            [
                                -99.217142,
                                19.48739
                            ],
                            [
                                -99.217163,
                                19.487397
                            ],
                            [
                                -99.217158,
                                19.487412
                            ],
                            [
                                -99.216858,
                                19.488258
                            ],
                            [
                                -99.21654,
                                19.489153
                            ],
                            [
                                -99.21645,
                                19.489407
                            ],
                            [
                                -99.208177,
                                19.487283
                            ]
                        ]
                    ]
                ]
            },
            "properties": {
                "area_km2": 0.3651,
                "cve_ageb": "0900200011076",
                "densidad_pob_km2": 2.7391,
                "entidad": "09",
                "fuente": "INEGI Censo 2020",
                "municipio_alcaldia": "Azcapotzalco",
                "pea": 0,
                "poblacion_total": 1,
                "tipo_entidad": "ageb",
                "viviendas_habitadas": 1
            }
        },
        {
            "type": "Feature",
            "geometry": {
                "type": "MultiPolygon",
                "coordinates": [
                    [
                        [
                            [
                                -99.156316,
                                19.286952
                            ],
                            [
                                -99.156995,
                                19.286511
                            ],
                            [
                                -99.157073,
                                19.286569
                            ],
                            [
                                -99.157099,
                                19.286588
                            ],
                            [
                                -99.158598,
                                19.287698
                            ],
                            [
                                -99.159804,
                                19.288502
                            ],
                            [
                                -99.160574,
                                19.28896
                            ],
                            [
                                -99.161068,
                                19.289337
                            ],
                            [
                                -99.161491,
                                19.289742
                            ],
                            [
                                -99.16197,
                                19.290171
                            ],
                            [
                                -99.162009,
                                19.290338
                            ],
                            [
                                -99.160997,
                                19.291074
                            ],
                            [
                                -99.159981,
                                19.291812
                            ],
                            [
                                -99.159136,
                                19.292426
                            ],
                            [
                                -99.157897,
                                19.293326
                            ],
                            [
                                -99.157185,
                                19.293841
                            ],
                            [
                                -99.157167,
                                19.293856
                            ],
                            [
                                -99.155759,
                                19.294903
                            ],
                            [
                                -99.155664,
                                19.29498
                            ],
                            [
                                -99.155523,
                                19.295093
                            ],
                            [
                                -99.155501,
                                19.295111
                            ],
                            [
                                -99.155415,
                                19.295181
                            ],
                            [
                                -99.155406,
                                19.295188
                            ],
                            [
                                -99.155176,
                                19.294885
                            ],
                            [
                                -99.154808,
                                19.294431
                            ],
                            [
                                -99.154431,
                                19.293966
                            ],
                            [
                                -99.153742,
                                19.293084
                            ],
                            [
                                -99.153228,
                                19.292383
                            ],
                            [
                                -99.152845,
                                19.29186
                            ],
                            [
                                -99.151489,
                                19.290108
                            ],
                            [
                                -99.153253,
                                19.288966
                            ],
                            [
                                -99.153657,
                                19.288705
                            ],
                            [
                                -99.154457,
                                19.288196
                            ],
                            [
                                -99.156316,
                                19.286952
                            ]
                        ]
                    ]
                ]
            },
            "properties": {
                "area_km2": 0.5391,
                "cve_ageb": "0901200010426",
                "densidad_pob_km2": 3995.9123,
                "entidad": "09",
                "fuente": "INEGI Censo 2020",
                "municipio_alcaldia": "Tlalpan",
                "pea": 1190,
                "poblacion_total": 2154,
                "tipo_entidad": "ageb",
                "viviendas_habitadas": 639
            }
        }
    ]
}
